STARLINK-3880           
1 52334U 22045D   26068.64384784 -.00000188  00000+0  62618-5 0  9991
2 52334  53.2189 209.3299 0001472  84.4342 275.6818 15.08839351215626
YAM-8                   
1 63254U 25052AW  26068.73092778  .00007810  00000+0  47267-3 0  9993
2 63254  97.7023 329.5345 0002369 152.6796 207.4558 15.10898938 54245
